CORAL                   
1 67684U 98067YA  26086.10770135  .00096256  00000+0  12827-2 0  9996
2 67684  51.6314 344.4708 0012570 238.1996 121.7773 15.57249768  7500
GXIBA-1                 
1 67685U 98067YB  26085.96881885  .00046603  00000+0  71441-3 0  9994
2 67685  51.6322 345.7931 0011841 245.2772 114.6986 15.53770911  7471
UITMSAT-2               
1 67686U 98067YC  26086.08387617  .00061183  00000+0  90429-3 0  9990
2 67686  51.6322 345.0642 0008967 216.5777 143.4602 15.54689548  7498
HMU-SAT2                
1 67687U 98067YD  26085.97344486  .00047602  00000+0  73714-3 0  9993
2 67687  51.6328 345.8268 0008474 219.6205 140.4167 15.53521271  7399
LEOPARD                 
1 67688U 98067YE  26086.09006898  .00052925  00000+0  79602-3 0  9996
2 67688  51.6328 345.1054 0008650 217.3181 142.7210 15.54275853  7410
CREW DRAGON 12          
1 67796U 26031A   26086.13218663  .00012923  00000+0  24583-3 0  9990
2 67796  51.6343 346.1324 0006239 237.1062 122.9326 15.48575012558970
PROGRESS-MS 33          
1 68319U 26058A   26086.13218663  .00012923  00000+0  24583-3 0  9991
2 68319  51.6343 346.1324 0006239 237.1062 122.9326 15.48575012   480
