CCSDS_OMM_VERS = 2.0
CREATION_DATE  = 
ORIGINATOR     = 

OBJECT_NAME    = CORAL
OBJECT_ID      = 1998-067YA
CENTER_NAME    = EARTH
REF_FRAME      = TEME
TIME_SYSTEM    = UTC
MEAN_ELEMENT_THEORY = SGP/SGP4

EPOCH          = 2026-03-27T02:35:05.397504
MEAN_MOTION    = 15.57249768
ECCENTRICITY   = .00125695
INCLINATION    = 51.6314
RA_OF_ASC_NODE = 344.4708
ARG_OF_PERICENTER = 238.1996
MEAN_ANOMALY   = 121.7773

EPHEMERIS_TYPE = 0
CLASSIFICATION_TYPE = U
NORAD_CAT_ID   = 67684
ELEMENT_SET_NO = 999
REV_AT_EPOCH   = 750
BSTAR          = .12826998E-2
MEAN_MOTION_DOT = .96256E-3
MEAN_MOTION_DDOT = 0

CCSDS_OMM_VERS = 2.0
CREATION_DATE  = 
ORIGINATOR     = 

OBJECT_NAME    = GXIBA-1
OBJECT_ID      = 1998-067YB
CENTER_NAME    = EARTH
REF_FRAME      = TEME
TIME_SYSTEM    = UTC
MEAN_ELEMENT_THEORY = SGP/SGP4

EPOCH          = 2026-03-26T23:15:05.948640
MEAN_MOTION    = 15.53770911
ECCENTRICITY   = .0011841
INCLINATION    = 51.6322
RA_OF_ASC_NODE = 345.7931
ARG_OF_PERICENTER = 245.2772
MEAN_ANOMALY   = 114.6986

EPHEMERIS_TYPE = 0
CLASSIFICATION_TYPE = U
NORAD_CAT_ID   = 67685
ELEMENT_SET_NO = 999
REV_AT_EPOCH   = 747
BSTAR          = .71441E-3
MEAN_MOTION_DOT = .46603E-3
MEAN_MOTION_DDOT = 0

CCSDS_OMM_VERS = 2.0
CREATION_DATE  = 
ORIGINATOR     = 

OBJECT_NAME    = UITMSAT-2
OBJECT_ID      = 1998-067YC
CENTER_NAME    = EARTH
REF_FRAME      = TEME
TIME_SYSTEM    = UTC
MEAN_ELEMENT_THEORY = SGP/SGP4

EPOCH          = 2026-03-27T02:00:46.901952
MEAN_MOTION    = 15.54689548
ECCENTRICITY   = .00089667
INCLINATION    = 51.6322
RA_OF_ASC_NODE = 345.0642
ARG_OF_PERICENTER = 216.5777
MEAN_ANOMALY   = 143.4602

EPHEMERIS_TYPE = 0
CLASSIFICATION_TYPE = U
NORAD_CAT_ID   = 67686
ELEMENT_SET_NO = 999
REV_AT_EPOCH   = 749
BSTAR          = .90428696E-3
MEAN_MOTION_DOT = .61183E-3
MEAN_MOTION_DDOT = 0

CCSDS_OMM_VERS = 2.0
CREATION_DATE  = 
ORIGINATOR     = 

OBJECT_NAME    = HMU-SAT2
OBJECT_ID      = 1998-067YD
CENTER_NAME    = EARTH
REF_FRAME      = TEME
TIME_SYSTEM    = UTC
MEAN_ELEMENT_THEORY = SGP/SGP4

EPOCH          = 2026-03-26T23:21:45.635904
MEAN_MOTION    = 15.53521271
ECCENTRICITY   = .0008474
INCLINATION    = 51.6328
RA_OF_ASC_NODE = 345.8268
ARG_OF_PERICENTER = 219.6205
MEAN_ANOMALY   = 140.4167

EPHEMERIS_TYPE = 0
CLASSIFICATION_TYPE = U
NORAD_CAT_ID   = 67687
ELEMENT_SET_NO = 999
REV_AT_EPOCH   = 739
BSTAR          = .73714E-3
MEAN_MOTION_DOT = .47602E-3
MEAN_MOTION_DDOT = 0

CCSDS_OMM_VERS = 2.0
CREATION_DATE  = 
ORIGINATOR     = 

OBJECT_NAME    = LEOPARD
OBJECT_ID      = 1998-067YE
CENTER_NAME    = EARTH
REF_FRAME      = TEME
TIME_SYSTEM    = UTC
MEAN_ELEMENT_THEORY = SGP/SGP4

EPOCH          = 2026-03-27T02:09:41.960736
MEAN_MOTION    = 15.54275853
ECCENTRICITY   = .00086502
INCLINATION    = 51.6328
RA_OF_ASC_NODE = 345.1054
ARG_OF_PERICENTER = 217.3181
MEAN_ANOMALY   = 142.7210

EPHEMERIS_TYPE = 0
CLASSIFICATION_TYPE = U
NORAD_CAT_ID   = 67688
ELEMENT_SET_NO = 999
REV_AT_EPOCH   = 741
BSTAR          = .79602331E-3
MEAN_MOTION_DOT = .52925E-3
MEAN_MOTION_DDOT = 0

CCSDS_OMM_VERS = 2.0
CREATION_DATE  = 
ORIGINATOR     = 

OBJECT_NAME    = CREW DRAGON 12
OBJECT_ID      = 2026-031A
CENTER_NAME    = EARTH
REF_FRAME      = TEME
TIME_SYSTEM    = UTC
MEAN_ELEMENT_THEORY = SGP/SGP4

EPOCH          = 2026-03-27T03:10:20.925696
MEAN_MOTION    = 15.48575012
ECCENTRICITY   = .0006239
INCLINATION    = 51.6343
RA_OF_ASC_NODE = 346.1324
ARG_OF_PERICENTER = 237.1062
MEAN_ANOMALY   = 122.9326

EPHEMERIS_TYPE = 0
CLASSIFICATION_TYPE = U
NORAD_CAT_ID   = 67796
ELEMENT_SET_NO = 999
REV_AT_EPOCH   = 55897
BSTAR          = .24583004E-3
MEAN_MOTION_DOT = .12923E-3
MEAN_MOTION_DDOT = 0

CCSDS_OMM_VERS = 2.0
CREATION_DATE  = 
ORIGINATOR     = 

OBJECT_NAME    = PROGRESS-MS 33
OBJECT_ID      = 2026-058A
CENTER_NAME    = EARTH
REF_FRAME      = TEME
TIME_SYSTEM    = UTC
MEAN_ELEMENT_THEORY = SGP/SGP4

EPOCH          = 2026-03-27T03:10:20.925696
MEAN_MOTION    = 15.48575012
ECCENTRICITY   = .0006239
INCLINATION    = 51.6343
RA_OF_ASC_NODE = 346.1324
ARG_OF_PERICENTER = 237.1062
MEAN_ANOMALY   = 122.9326

EPHEMERIS_TYPE = 0
CLASSIFICATION_TYPE = U
NORAD_CAT_ID   = 68319
ELEMENT_SET_NO = 999
REV_AT_EPOCH   = 33
BSTAR          = .24583004E-3
MEAN_MOTION_DOT = .12923E-3
MEAN_MOTION_DDOT = 0

